{
  "norad_id": 56123,
  "name": "STARLINK-6115",
  "history": [
    {
      "epoch": "2026-03-28T13:44:43.160064",
      "apogee_km": 486.28405573614054,
      "perigee_km": 484.79738314211045,
      "latitude_deg": -25.72544138230477,
      "longitude_deg": -152.71871103998274,
      "semi_major_axis_km": 6863.677719439125,
      "eccentricity": 0.0001083,
      "inclination_deg": 43.0033,
      "raan_deg": 40.7183,
      "arg_perigee_deg": 271.2193,
      "mean_anomaly_deg": 88.8534,
      "mean_motion_rev_day": 15.26748272
    }
  ]
}